[{"OBJECT_NAME":"KUIPER-00033","OBJECT_ID":"2025-088Y","EPOCH":"2026-03-09T08:27:15.717600","MEAN_MOTION":14.83473272,"ECCENTRICITY":0.00010258,"INCLINATION":51.8992,"RA_OF_ASC_NODE":127.3567,"ARG_OF_PERICENTER":44.0483,"MEAN_ANOMALY":316.0562,"EPHEMERIS_TYPE":0,"CLASSIFICATION_TYPE":"U","NORAD_CAT_ID":63746,"ELEMENT_SET_NO":999,"REV_AT_EPOCH":4756,"BSTAR":0.00069892366,"MEAN_MOTION_DOT":5.577e-5,"MEAN_MOTION_DDOT":0},{"OBJECT_NAME":"COSMOS 2251 DEB","OBJECT_ID":"1993-036WQ","EPOCH":"2026-03-09T22:36:05.008896","MEAN_MOTION":14.6494455,"ECCENTRICITY":0.00917292,"INCLINATION":74.0453,"RA_OF_ASC_NODE":32.3233,"ARG_OF_PERICENTER":105.5203,"MEAN_ANOMALY":255.6117,"EPHEMERIS_TYPE":0,"CLASSIFICATION_TYPE":"U","NORAD_CAT_ID":34619,"ELEMENT_SET_NO":999,"REV_AT_EPOCH":90575,"BSTAR":0.00028990779,"MEAN_MOTION_DOT":1.618e-5,"MEAN_MOTION_DDOT":0}]
